[{"OBJECT_NAME":"SAUDICOMSAT 3","OBJECT_ID":"2007-012J","EPOCH":"2026-03-09T21:56:33.601056","MEAN_MOTION":14.70526386,"ECCENTRICITY":0.0039477,"INCLINATION":98.305,"RA_OF_ASC_NODE":42.4048,"ARG_OF_PERICENTER":7.9063,"MEAN_ANOMALY":352.2756,"EPHEMERIS_TYPE":0,"CLASSIFICATION_TYPE":"U","NORAD_CAT_ID":31125,"ELEMENT_SET_NO":999,"REV_AT_EPOCH":1023,"BSTAR":0.00027068217,"MEAN_MOTION_DOT":1.608e-5,"MEAN_MOTION_DDOT":0},{"OBJECT_NAME":"CZ-6A DEB","OBJECT_ID":"2022-151UM","EPOCH":"2026-03-09T15:34:36.039072","MEAN_MOTION":14.72839437,"ECCENTRICITY":0.00692827,"INCLINATION":98.6144,"RA_OF_ASC_NODE":129.596,"ARG_OF_PERICENTER":220.6178,"MEAN_ANOMALY":138.9848,"EPHEMERIS_TYPE":0,"CLASSIFICATION_TYPE":"U","NORAD_CAT_ID":54996,"ELEMENT_SET_NO":999,"REV_AT_EPOCH":17474,"BSTAR":0.0025807014,"MEAN_MOTION_DOT":0.00017132,"MEAN_MOTION_DDOT":0}]
